SL-14 R/B               
1 16792U 86046B   25353.45051559  .00000417  00000+0  45251-4 0  9993
2 16792  82.4813 155.9762 0024248 130.9041 229.4280 14.85491598114496
SL-14 R/B               
1 16882U 86055B   25353.84318899  .00000347  00000+0  37293-4 0  9998
2 16882  82.5198 201.6980 0017679 233.9468 136.6349 14.85537090107519
AJISAI (EGS)            
1 16908U 86061A   25353.81109494 -.00000099  00000+0 -11962-4 0  9991
2 16908  50.0114 338.9733 0011313  83.6469 350.3291 12.44514347458058
COSMOS 1812             
1 17295U 87003A   25353.84079727  .00083333  00000+0  51294-3 0  9997
2 17295  82.4878 284.3204 0006860  75.9122 284.2905 15.76894246131773
SL-14 R/B               
1 17567U 87024B   25353.84969219  .00000385  00000+0  41125-4 0  9995
2 17567  82.5276 167.7752 0018708 160.7939 199.3987 14.86030561 76274
COSMOS 1833             
1 17589U 87027A   25353.51372503  .00000193  00000+0  12909-3 0  9994
2 17589  70.9148 134.5369 0022817 322.2517  37.7003 14.13024725998986
SL-16 R/B               
1 17590U 87027B   25353.64921414  .00000221  00000+0  13354-3 0  9998
2 17590  71.0037  85.1591 0007268 252.2270 107.8061 14.17154893  4004
SL-14 R/B               
1 17912U 87038B   25353.46676508  .00000350  00000+0  37822-4 0  9999
2 17912  82.5012  12.3645 0020815  71.5351 288.8125 14.85266917 67320
COSMOS 1844             
1 17973U 87041A   25353.84573946  .00000212  00000+0  13489-3 0  9993
2 17973  70.8964 202.5833 0029837 145.8549 214.4499 14.14527804992291
SL-14 R/B               
1 18153U 87055B   25353.65952742  .00000361  00000+0  38948-4 0  9996
2 18153  82.4996  64.4672 0019175 278.7599  81.1445 14.85527769 58052
COSMOS 1867             
1 18187U 87060A   25353.23978832 -.00000047  00000+0  19898-4 0  9996
2 18187  65.0086 171.9996 0013640 271.7720  88.1802 14.31487119  8424
SL-14 R/B               
1 18749U 88001B   25353.71695656  .00000372  00000+0  40201-4 0  9991
2 18749  82.5135 270.5851 0019052 138.9504 221.3150 14.85430649 30157
