CCSDS_OMM_VERS = 2.0
CREATION_DATE  = 
ORIGINATOR     = 

OBJECT_NAME    = SL-14 R/B
OBJECT_ID      = 1986-046B
CENTER_NAME    = EARTH
REF_FRAME      = TEME
TIME_SYSTEM    = UTC
MEAN_ELEMENT_THEORY = SGP/SGP4

EPOCH          = 2025-12-19T10:48:44.546976
MEAN_MOTION    = 14.85491598
ECCENTRICITY   = .0024248
INCLINATION    = 82.4813
RA_OF_ASC_NODE = 155.9762
ARG_OF_PERICENTER = 130.9041
MEAN_ANOMALY   = 229.4280

EPHEMERIS_TYPE = 0
CLASSIFICATION_TYPE = U
NORAD_CAT_ID   = 16792
ELEMENT_SET_NO = 999
REV_AT_EPOCH   = 11449
BSTAR          = .45251E-4
MEAN_MOTION_DOT = .417E-5
MEAN_MOTION_DDOT = 0

CCSDS_OMM_VERS = 2.0
CREATION_DATE  = 
ORIGINATOR     = 

OBJECT_NAME    = SL-14 R/B
OBJECT_ID      = 1986-055B
CENTER_NAME    = EARTH
REF_FRAME      = TEME
TIME_SYSTEM    = UTC
MEAN_ELEMENT_THEORY = SGP/SGP4

EPOCH          = 2025-12-19T20:14:11.528736
MEAN_MOTION    = 14.85537090
ECCENTRICITY   = .0017679
INCLINATION    = 82.5198
RA_OF_ASC_NODE = 201.6980
ARG_OF_PERICENTER = 233.9468
MEAN_ANOMALY   = 136.6349

EPHEMERIS_TYPE = 0
CLASSIFICATION_TYPE = U
NORAD_CAT_ID   = 16882
ELEMENT_SET_NO = 999
REV_AT_EPOCH   = 10751
BSTAR          = .37293E-4
MEAN_MOTION_DOT = .347E-5
MEAN_MOTION_DDOT = 0

CCSDS_OMM_VERS = 2.0
CREATION_DATE  = 
ORIGINATOR     = 

OBJECT_NAME    = AJISAI (EGS)
OBJECT_ID      = 1986-061A
CENTER_NAME    = EARTH
REF_FRAME      = TEME
TIME_SYSTEM    = UTC
MEAN_ELEMENT_THEORY = SGP/SGP4

EPOCH          = 2025-12-19T19:27:58.602816
MEAN_MOTION    = 12.44514347
ECCENTRICITY   = .0011313
INCLINATION    = 50.0114
RA_OF_ASC_NODE = 338.9733
ARG_OF_PERICENTER = 83.6469
MEAN_ANOMALY   = 350.3291

EPHEMERIS_TYPE = 0
CLASSIFICATION_TYPE = U
NORAD_CAT_ID   = 16908
ELEMENT_SET_NO = 999
REV_AT_EPOCH   = 45805
BSTAR          = -.11962E-4
MEAN_MOTION_DOT = -.99E-6
MEAN_MOTION_DDOT = 0

CCSDS_OMM_VERS = 2.0
CREATION_DATE  = 
ORIGINATOR     = 

OBJECT_NAME    = COSMOS 1812
OBJECT_ID      = 1987-003A
CENTER_NAME    = EARTH
REF_FRAME      = TEME
TIME_SYSTEM    = UTC
MEAN_ELEMENT_THEORY = SGP/SGP4

EPOCH          = 2025-12-19T20:10:44.884128
MEAN_MOTION    = 15.76894246
ECCENTRICITY   = .000686
INCLINATION    = 82.4878
RA_OF_ASC_NODE = 284.3204
ARG_OF_PERICENTER = 75.9122
MEAN_ANOMALY   = 284.2905

EPHEMERIS_TYPE = 0
CLASSIFICATION_TYPE = U
NORAD_CAT_ID   = 17295
ELEMENT_SET_NO = 999
REV_AT_EPOCH   = 13177
BSTAR          = .51294E-3
MEAN_MOTION_DOT = .83333E-3
MEAN_MOTION_DDOT = 0

CCSDS_OMM_VERS = 2.0
CREATION_DATE  = 
ORIGINATOR     = 

OBJECT_NAME    = SL-14 R/B
OBJECT_ID      = 1987-024B
CENTER_NAME    = EARTH
REF_FRAME      = TEME
TIME_SYSTEM    = UTC
MEAN_ELEMENT_THEORY = SGP/SGP4

EPOCH          = 2025-12-19T20:23:33.405216
MEAN_MOTION    = 14.86030561
ECCENTRICITY   = .0018708
INCLINATION    = 82.5276
RA_OF_ASC_NODE = 167.7752
ARG_OF_PERICENTER = 160.7939
MEAN_ANOMALY   = 199.3987

EPHEMERIS_TYPE = 0
CLASSIFICATION_TYPE = U
NORAD_CAT_ID   = 17567
ELEMENT_SET_NO = 999
REV_AT_EPOCH   = 7627
BSTAR          = .41125E-4
MEAN_MOTION_DOT = .385E-5
MEAN_MOTION_DDOT = 0

CCSDS_OMM_VERS = 2.0
CREATION_DATE  = 
ORIGINATOR     = 

OBJECT_NAME    = COSMOS 1833
OBJECT_ID      = 1987-027A
CENTER_NAME    = EARTH
REF_FRAME      = TEME
TIME_SYSTEM    = UTC
MEAN_ELEMENT_THEORY = SGP/SGP4

EPOCH          = 2025-12-19T12:19:45.842592
MEAN_MOTION    = 14.13024725
ECCENTRICITY   = .0022817
INCLINATION    = 70.9148
RA_OF_ASC_NODE = 134.5369
ARG_OF_PERICENTER = 322.2517
MEAN_ANOMALY   = 37.7003

EPHEMERIS_TYPE = 0
CLASSIFICATION_TYPE = U
NORAD_CAT_ID   = 17589
ELEMENT_SET_NO = 999
REV_AT_EPOCH   = 99898
BSTAR          = .12909E-3
MEAN_MOTION_DOT = .193E-5
MEAN_MOTION_DDOT = 0

CCSDS_OMM_VERS = 2.0
CREATION_DATE  = 
ORIGINATOR     = 

OBJECT_NAME    = SL-16 R/B
OBJECT_ID      = 1987-027B
CENTER_NAME    = EARTH
REF_FRAME      = TEME
TIME_SYSTEM    = UTC
MEAN_ELEMENT_THEORY = SGP/SGP4

EPOCH          = 2025-12-19T15:34:52.101696
MEAN_MOTION    = 14.17154893
ECCENTRICITY   = .0007268
INCLINATION    = 71.0037
RA_OF_ASC_NODE = 85.1591
ARG_OF_PERICENTER = 252.2270
MEAN_ANOMALY   = 107.8061

EPHEMERIS_TYPE = 0
CLASSIFICATION_TYPE = U
NORAD_CAT_ID   = 17590
ELEMENT_SET_NO = 999
REV_AT_EPOCH   = 400
BSTAR          = .13354E-3
MEAN_MOTION_DOT = .221E-5
MEAN_MOTION_DDOT = 0

CCSDS_OMM_VERS = 2.0
CREATION_DATE  = 
ORIGINATOR     = 

OBJECT_NAME    = SL-14 R/B
OBJECT_ID      = 1987-038B
CENTER_NAME    = EARTH
REF_FRAME      = TEME
TIME_SYSTEM    = UTC
MEAN_ELEMENT_THEORY = SGP/SGP4

EPOCH          = 2025-12-19T11:12:08.502912
MEAN_MOTION    = 14.85266917
ECCENTRICITY   = .0020815
INCLINATION    = 82.5012
RA_OF_ASC_NODE = 12.3645
ARG_OF_PERICENTER = 71.5351
MEAN_ANOMALY   = 288.8125

EPHEMERIS_TYPE = 0
CLASSIFICATION_TYPE = U
NORAD_CAT_ID   = 17912
ELEMENT_SET_NO = 999
REV_AT_EPOCH   = 6732
BSTAR          = .37822E-4
MEAN_MOTION_DOT = .35E-5
MEAN_MOTION_DDOT = 0

CCSDS_OMM_VERS = 2.0
CREATION_DATE  = 
ORIGINATOR     = 

OBJECT_NAME    = COSMOS 1844
OBJECT_ID      = 1987-041A
CENTER_NAME    = EARTH
REF_FRAME      = TEME
TIME_SYSTEM    = UTC
MEAN_ELEMENT_THEORY = SGP/SGP4

EPOCH          = 2025-12-19T20:17:51.889344
MEAN_MOTION    = 14.14527804
ECCENTRICITY   = .0029837
INCLINATION    = 70.8964
RA_OF_ASC_NODE = 202.5833
ARG_OF_PERICENTER = 145.8549
MEAN_ANOMALY   = 214.4499

EPHEMERIS_TYPE = 0
CLASSIFICATION_TYPE = U
NORAD_CAT_ID   = 17973
ELEMENT_SET_NO = 999
REV_AT_EPOCH   = 99229
BSTAR          = .13489E-3
MEAN_MOTION_DOT = .212E-5
MEAN_MOTION_DDOT = 0

CCSDS_OMM_VERS = 2.0
CREATION_DATE  = 
ORIGINATOR     = 

OBJECT_NAME    = SL-14 R/B
OBJECT_ID      = 1987-055B
CENTER_NAME    = EARTH
REF_FRAME      = TEME
TIME_SYSTEM    = UTC
MEAN_ELEMENT_THEORY = SGP/SGP4

EPOCH          = 2025-12-19T15:49:43.169088
MEAN_MOTION    = 14.85527769
ECCENTRICITY   = .0019175
INCLINATION    = 82.4996
RA_OF_ASC_NODE = 64.4672
ARG_OF_PERICENTER = 278.7599
MEAN_ANOMALY   = 81.1445

EPHEMERIS_TYPE = 0
CLASSIFICATION_TYPE = U
NORAD_CAT_ID   = 18153
ELEMENT_SET_NO = 999
REV_AT_EPOCH   = 5805
BSTAR          = .38948E-4
MEAN_MOTION_DOT = .361E-5
MEAN_MOTION_DDOT = 0

CCSDS_OMM_VERS = 2.0
CREATION_DATE  = 
ORIGINATOR     = 

OBJECT_NAME    = COSMOS 1867
OBJECT_ID      = 1987-060A
CENTER_NAME    = EARTH
REF_FRAME      = TEME
TIME_SYSTEM    = UTC
MEAN_ELEMENT_THEORY = SGP/SGP4

EPOCH          = 2025-12-19T05:45:17.710848
MEAN_MOTION    = 14.31487119
ECCENTRICITY   = .001364
INCLINATION    = 65.0086
RA_OF_ASC_NODE = 171.9996
ARG_OF_PERICENTER = 271.7720
MEAN_ANOMALY   = 88.1802

EPHEMERIS_TYPE = 0
CLASSIFICATION_TYPE = U
NORAD_CAT_ID   = 18187
ELEMENT_SET_NO = 999
REV_AT_EPOCH   = 842
BSTAR          = .19898E-4
MEAN_MOTION_DOT = -.47E-6
MEAN_MOTION_DDOT = 0

CCSDS_OMM_VERS = 2.0
CREATION_DATE  = 
ORIGINATOR     = 

OBJECT_NAME    = SL-14 R/B
OBJECT_ID      = 1988-001B
CENTER_NAME    = EARTH
REF_FRAME      = TEME
TIME_SYSTEM    = UTC
MEAN_ELEMENT_THEORY = SGP/SGP4

EPOCH          = 2025-12-19T17:12:25.046784
MEAN_MOTION    = 14.85430649
ECCENTRICITY   = .0019052
INCLINATION    = 82.5135
RA_OF_ASC_NODE = 270.5851
ARG_OF_PERICENTER = 138.9504
MEAN_ANOMALY   = 221.3150

EPHEMERIS_TYPE = 0
CLASSIFICATION_TYPE = U
NORAD_CAT_ID   = 18749
ELEMENT_SET_NO = 999
REV_AT_EPOCH   = 3015
BSTAR          = .40201E-4
MEAN_MOTION_DOT = .372E-5
MEAN_MOTION_DDOT = 0

